0001P         2061 08 31.8266  0.583972  0.967311  112.5470   59.6368  162.2146  20250501   4.0  6.0  1P/Halley                                                 98, 1083
0002P         2023 10 22.5808  0.339150  0.847105  187.2798  334.0144   11.3437  20250501  11.5  6.0  2P/Encke                                                 MPEC 2024-TP3
0003D         2025 06 26.1994  0.822712  0.767554  192.2955  276.1866    7.8877  20250501  11.0  6.0  3D/Biela                                                  76, 1135
0003D      a  2024 12  2.1223  0.826841  0.767115  192.1256  276.6834    7.2156  20250501  11.0  6.0  3D-A/Biela                                                76, 1135
0003D      b  2025 06 28.0751  0.821827  0.767852  192.2568  276.2013    7.8798  20250501  11.0  6.0  3D-B/Biela                                                76, 1135
0004P         2021 09  9.0356  1.622456  0.576366  207.1393  192.9127    8.0035  20250501   8.0  6.0  4P/Faye                                                  MPEC 2023-FK0
0005D         2023 04 17.3122  0.512102  0.837862   20.3022   94.9065   18.6308  20250501  10.5  6.0  5D/Brorsen                                                27,  116
0006P         2028 04  1.7425  1.357471  0.611896  178.0552  138.9506   19.4993  20250501   7.5 16.0  6P/d'Arrest                                              MPEC 2022-WD2
0007P         2027 09  1.4995  1.204370  0.645272  172.4695   93.2771   22.5757  20250501  10.0  6.0  7P/Pons-Winnecke                                         MPEC 2023-A50
0008P         2021 08 28.5269  1.023071  0.820680  207.4750  270.1769   54.9837  20250501   8.0  8.0  8P/Tuttle                                                MPEC 2022-HC2
0009P         2028 02  3.6074  1.723110  0.475088  184.4332   67.3616   10.7011  20250501   5.5 10.0  9P/Tempel                                                MPEC 2024-YC7
0010P         2026 08  2.1587  1.417358  0.537379  195.4953  117.8010   12.0274  20250501   5.0 10.0  10P/Tempel                                               MPEC 2025-J08
